{
    "links": {
        "self": "http://www.neowsapp.com/rest/v1/neo/3703544?api_key=iIulBulltgU6a56xZRHN4H3l9WmuAYTsLGpBGhQ2"
    },
    "id": "3703544",
    "neo_reference_id": "3703544",
    "name": "(2015 AH44)",
    "designation": "2015 AH44",
    "nasa_jpl_url": "http://ssd.jpl.nasa.gov/sbdb.cgi?sstr=3703544",
    "absolute_magnitude_h": 24.4,
    "estimated_diameter": {
        "kilometers": {
            "estimated_diameter_min": 0.0350392641,
            "estimated_diameter_max": 0.0783501764
        },
        "meters": {
            "estimated_diameter_min": 35.0392641108,
            "estimated_diameter_max": 78.3501764334
        },
        "miles": {
            "estimated_diameter_min": 0.0217723826,
            "estimated_diameter_max": 0.0486845275
        },
        "feet": {
            "estimated_diameter_min": 114.9582192654,
            "estimated_diameter_max": 257.0543928497
        }
    },
    "is_potentially_hazardous_asteroid": false,
    "close_approach_data": [
        {
            "close_approach_date": "2015-01-14",
            "close_approach_date_full": "2015-Jan-14 23:28",
            "epoch_date_close_approach": 1421278080000,
            "relative_velocity": {
                "kilometers_per_second": "10.7738065184",
                "kilometers_per_hour": "38785.7034663286",
                "miles_per_hour": "24099.927801064"
            },
            "miss_distance": {
                "astronomical": "0.020111221",
                "lunar": "7.823264969",
                "kilometers": "3008595.82469927",
                "miles": "1869454.757699126"
            },
            "orbiting_body": "Earth"
        }
    ],
    "orbital_data": {
        "orbit_id": "9",
        "orbit_determination_date": "2017-04-06 08:36:26",
        "first_observation_date": "2015-01-15",
        "last_observation_date": "2015-01-23",
        "data_arc_in_days": 8,
        "observations_used": 43,
        "orbit_uncertainty": "7",
        "minimum_orbit_intersection": ".0195971",
        "jupiter_tisserand_invariant": "3.880",
        "epoch_osculation": "2459000.5",
        "eccentricity": ".4482369748344698",
        "semi_major_axis": "1.816106509568399",
        "inclination": "16.04133048535857",
        "ascending_node_longitude": "114.3994195699443",
        "orbital_period": "893.9441763787572",
        "perihelion_distance": "1.002060421742272",
        "perihelion_argument": "4.971894877400875",
        "aphelion_distance": "2.630152597394527",
        "perihelion_time": "2458829.547641246704",
        "mean_anomaly": "68.84417481244527",
        "mean_motion": ".4027097099712754",
        "equinox": "J2000",
        "orbit_class": {
            "orbit_class_type": "APO",
            "orbit_class_description": "Near-Earth asteroid orbits which cross the Earth’s orbit similar to that of 1862 Apollo",
            "orbit_class_range": "a (semi-major axis) > 1.0 AU; q (perihelion) < 1.017 AU"
        }
    },
    "is_sentry_object": false
}